start=new Date('2022-01-28T00:00:00.000Z').valueOf();
sats=[{"MEAN_MOTION_DOT":"0.00001859","MEAN_ELEMENT_THEORY":"SGP4","MEAN_MOTION":"15.06396224","PERIAPSIS":"546.123","EPOCH":"2022-01-27T16:12:00.808704","MEAN_MOTION_DDOT":"0.0000000000000","RA_OF_ASC_NODE":"14.4209","DECAY_DATE":null,"SEMIMAJOR_AXIS":"6925.360","OBJECT_NAME":"STARLINK-2738","APOAPSIS":"548.328","GP_ID":"194749735","INCLINATION":"53.0568","BSTAR":"0.00014367000000","REV_AT_EPOCH":"3836","RCS_SIZE":"LARGE","OBJECT_ID":"2021-044AG","TIME_SYSTEM":"UTC","REF_FRAME":"TEME","MEAN_ANOMALY":"292.5447","NORAD_CAT_ID":"48668","OBJECT_TYPE":"PAYLOAD","TLE_LINE2":"2 48668  53.0568  14.4209 0001592  67.5711 292.5447 15.06396224 38366","CENTER_NAME":"EARTH","LAUNCH_DATE":"2021-05-26","ECCENTRICITY":"0.00015920","CLASSIFICATION_TYPE":"U","FILE":"3285127","EPHEMERIS_TYPE":"0","ARG_OF_PERICENTER":"67.5711","COUNTRY_CODE":"US","SITE":"AFETR","ELEMENT_SET_NO":"999","TLE_LINE1":"1 48668U 21044AG  22027.67500936  .00001859  00000-0  14367-3 0  9999","PERIOD":"95.592"},{"NORAD_CAT_ID":"48669","MEAN_ANOMALY":"285.8155","OBJECT_TYPE":"PAYLOAD","TIME_SYSTEM":"UTC","OBJECT_ID":"2021-044AH","REF_FRAME":"TEME","ECCENTRICITY":"0.00015260","LAUNCH_DATE":"2021-05-26","CLASSIFICATION_TYPE":"U","TLE_LINE2":"2 48669  53.0549  14.4317 0001526  74.3003 285.8155 15.06395980 38294","CENTER_NAME":"EARTH","FILE":"3285311","EPHEMERIS_TYPE":"0","PERIOD":"95.592","TLE_LINE1":"1 48669U 21044AH  22027.67131509  .00000505  00000-0  52826-4 0  9996","SITE":"AFETR","COUNTRY_CODE":"US","ARG_OF_PERICENTER":"74.3003","ELEMENT_SET_NO":"999","MEAN_ELEMENT_THEORY":"SGP4","PERIAPSIS":"546.169","MEAN_MOTION":"15.06395980","MEAN_MOTION_DOT":"0.00000505","MEAN_MOTION_DDOT":"0.0000000000000","RA_OF_ASC_NODE":"14.4317","DECAY_DATE":null,"EPOCH":"2022-01-27T16:06:41.623776","APOAPSIS":"548.283","OBJECT_NAME":"STARLINK-2707","SEMIMAJOR_AXIS":"6925.361","GP_ID":"194753775","RCS_SIZE":"LARGE","REV_AT_EPOCH":"3829","INCLINATION":"53.0549","BSTAR":"0.00005282600000"},{"INCLINATION":"53.0548","BSTAR":"-0.00001406000000","RCS_SIZE":"LARGE","REV_AT_EPOCH":"3829","OBJECT_NAME":"STARLINK-2763","APOAPSIS":"548.245","SEMIMAJOR_AXIS":"6925.363","GP_ID":"194747908","EPOCH":"2022-01-27T16:01:24.222144","RA_OF_ASC_NODE":"14.4480","MEAN_MOTION_DDOT":"0.0000000000000","DECAY_DATE":null,"MEAN_MOTION_DOT":"-0.00000491","MEAN_ELEMENT_THEORY":"SGP4","PERIAPSIS":"546.211","MEAN_MOTION":"15.06395308","SITE":"AFETR","ARG_OF_PERICENTER":"61.0599","COUNTRY_CODE":"US","ELEMENT_SET_NO":"999","PERIOD":"95.592","TLE_LINE1":"1 48670U 21044AJ  22027.66764146 -.00000491  00000-0 -14060-4 0  9990","EPHEMERIS_TYPE":"0","FILE":"3285069","TLE_LINE2":"2 48670  53.0548  14.4480 0001469  61.0599 299.0537 15.06395308 38290","CENTER_NAME":"EARTH","CLASSIFICATION_TYPE":"U","LAUNCH_DATE":"2021-05-26","ECCENTRICITY":"0.00014690","TIME_SYSTEM":"UTC","OBJECT_ID":"2021-044AJ","REF_FRAME":"TEME","NORAD_CAT_ID":"48670","MEAN_ANOMALY":"299.0537","OBJECT_TYPE":"PAYLOAD"},{"EPHEMERIS_TYPE":"0","FILE":"3285061","ELEMENT_SET_NO":"999","ARG_OF_PERICENTER":"61.8280","COUNTRY_CODE":"US","SITE":"AFETR","TLE_LINE1":"1 48671U 21044AK  22027.66394717  .00000339  00000-0  41639-4 0  9995","PERIOD":"95.593","REF_FRAME":"TEME","OBJECT_ID":"2021-044AK","TIME_SYSTEM":"UTC","OBJECT_TYPE":"PAYLOAD","MEAN_ANOMALY":"298.2876","NORAD_CAT_ID":"48671","CENTER_NAME":"EARTH","TLE_LINE2":"2 48671  53.0572  14.4741 0001662  61.8280 298.2876 15.06390830 38290","ECCENTRICITY":"0.00016620","LAUNCH_DATE":"2021-05-26","CLASSIFICATION_TYPE":"U","GP_ID":"194747506","SEMIMAJOR_AXIS":"6925.377","OBJECT_NAME":"STARLINK-2745","APOAPSIS":"548.393","BSTAR":"0.00004163900000","INCLINATION":"53.0572","REV_AT_EPOCH":"3829","RCS_SIZE":"LARGE","MEAN_MOTION_DOT":"0.00000339","MEAN_MOTION":"15.06390830","PERIAPSIS":"546.091","MEAN_ELEMENT_THEORY":"SGP4","EPOCH":"2022-01-27T15:56:05.035488","DECAY_DATE":null,"MEAN_MOTION_DDOT":"0.0000000000000","RA_OF_ASC_NODE":"14.4741"},{"SEMIMAJOR_AXIS":"6925.377","APOAPSIS":"548.366","OBJECT_NAME":"STARLINK-2705","GP_ID":"194747978","REV_AT_EPOCH":"3835","RCS_SIZE":"LARGE","INCLINATION":"53.0563","BSTAR":"-0.00008691100000","MEAN_ELEMENT_THEORY":"SGP4","MEAN_MOTION":"15.06390869","PERIAPSIS":"546.118","MEAN_MOTION_DOT":"-0.00001575","RA_OF_ASC_NODE":"14.4865","MEAN_MOTION_DDOT":"0.0000000000000","DECAY_DATE":null,"EPOCH":"2022-01-27T15:50:46.970304","FILE":"3285075","EPHEMERIS_TYPE":"0","TLE_LINE1":"1 48672U 21044AL  22027.66026586 -.00001575  00000-0 -86911-4 0  9999","PERIOD":"95.593","COUNTRY_CODE":"US","ARG_OF_PERICENTER":"68.2873","SITE":"AFETR","ELEMENT_SET_NO":"999","MEAN_ANOMALY":"291.8289","NORAD_CAT_ID":"48672","OBJECT_TYPE":"PAYLOAD","OBJECT_ID":"2021-044AL","TIME_SYSTEM":"UTC","REF_FRAME":"TEME","LAUNCH_DATE":"2021-05-26","CLASSIFICATION_TYPE":"U","ECCENTRICITY":"0.00016230","TLE_LINE2":"2 48672  53.0563  14.4865 0001623  68.2873 291.8289 15.06390869 38350","CENTER_NAME":"EARTH"},{"SITE":"AFETR","ARG_OF_PERICENTER":"72.6423","COUNTRY_CODE":"US","ELEMENT_SET_NO":"999","TLE_LINE1":"1 48673U 21044AM  22027.32483352  .00001726  00000-0  13471-3 0  9997","PERIOD":"95.592","EPHEMERIS_TYPE":"0","FILE":"3284946","TLE_LINE2":"2 48673  53.0556  15.9879 0001386  72.6423 287.4717 15.06401665 37409","CENTER_NAME":"EARTH","CLASSIFICATION_TYPE":"U","LAUNCH_DATE":"2021-05-26","ECCENTRICITY":"0.00013860","TIME_SYSTEM":"UTC","OBJECT_ID":"2021-044AM","REF_FRAME":"TEME","NORAD_CAT_ID":"48673","MEAN_ANOMALY":"287.4717","OBJECT_TYPE":"PAYLOAD","INCLINATION":"53.0556","BSTAR":"0.00013471000000","RCS_SIZE":"LARGE","REV_AT_EPOCH":"3740","OBJECT_NAME":"STARLINK-2711","APOAPSIS":"548.168","SEMIMAJOR_AXIS":"6925.343","GP_ID":"194743145","EPOCH":"2022-01-27T07:47:45.616128","MEAN_MOTION_DDOT":"0.0000000000000","RA_OF_ASC_NODE":"15.9879","DECAY_DATE":null,"MEAN_MOTION_DOT":"0.00001726","MEAN_ELEMENT_THEORY":"SGP4","PERIAPSIS":"546.249","MEAN_MOTION":"15.06401665"},{"TIME_SYSTEM":"UTC","OBJECT_ID":"2021-044AN","REF_FRAME":"TEME","NORAD_CAT_ID":"48674","MEAN_ANOMALY":"292.5498","OBJECT_TYPE":"PAYLOAD","TLE_LINE2":"2 48674  53.0563  14.5164 0001442  67.5644 292.5498 15.06393866 38352","CENTER_NAME":"EARTH","LAUNCH_DATE":"2021-05-26","CLASSIFICATION_TYPE":"U","ECCENTRICITY":"0.00014420","EPHEMERIS_TYPE":"0","FILE":"3285077","SITE":"AFETR","COUNTRY_CODE":"US","ARG_OF_PERICENTER":"67.5644","ELEMENT_SET_NO":"999","TLE_LINE1":"1 48674U 21044AN  22027.65288955  .00000392  00000-0  45190-4 0  9998","PERIOD":"95.593","MEAN_MOTION_DOT":"0.00000392","MEAN_ELEMENT_THEORY":"SGP4","PERIAPSIS":"546.234","MEAN_MOTION":"15.06393866","EPOCH":"2022-01-27T15:40:09.657120","MEAN_MOTION_DDOT":"0.0000000000000","RA_OF_ASC_NODE":"14.5164","DECAY_DATE":null,"OBJECT_NAME":"STARLINK-2712","APOAPSIS":"548.231","SEMIMAJOR_AXIS":"6925.367","GP_ID":"194748515","INCLINATION":"53.0563","BSTAR":"0.00004519000000","RCS_SIZE":"LARGE","REV_AT_EPOCH":"3835"},{"RCS_SIZE":"LARGE","REV_AT_EPOCH":"3829","INCLINATION":"53.0568","BSTAR":"-0.00009247200000","OBJECT_NAME":"STARLINK-2737","APOAPSIS":"548.385","SEMIMAJOR_AXIS":"6925.349","GP_ID":"194748029","MEAN_MOTION_DDOT":"0.0000000000000","RA_OF_ASC_NODE":"14.5464","DECAY_DATE":null,"EPOCH":"2022-01-27T15:34:50.992320","MEAN_ELEMENT_THEORY":"SGP4","PERIAPSIS":"546.043","MEAN_MOTION":"15.06399849","MEAN_MOTION_DOT":"-0.00001659","TLE_LINE1":"1 48675U 21044AP  22027.64920130 -.00001659  00000-0 -92472-4 0  9990","PERIOD":"95.592","SITE":"AFETR","ARG_OF_PERICENTER":"66.4026","COUNTRY_CODE":"US","ELEMENT_SET_NO":"999","FILE":"3285094","EPHEMERIS_TYPE":"0","CLASSIFICATION_TYPE":"U","LAUNCH_DATE":"2021-05-26","ECCENTRICITY":"0.00016910","TLE_LINE2":"2 48675  53.0568  14.5464 0001691  66.4026 293.7140 15.06399849 38296","CENTER_NAME":"EARTH","NORAD_CAT_ID":"48675","MEAN_ANOMALY":"293.7140","OBJECT_TYPE":"PAYLOAD","TIME_SYSTEM":"UTC","OBJECT_ID":"2021-044AP","REF_FRAME":"TEME"},{"MEAN_MOTION_DOT":"0.00000614","MEAN_MOTION":"15.06388741","PERIAPSIS":"546.225","MEAN_ELEMENT_THEORY":"SGP4","EPOCH":"2022-01-27T02:45:13.871232","DECAY_DATE":null,"RA_OF_ASC_NODE":"16.9356","MEAN_MOTION_DDOT":"0.0000000000000","GP_ID":"194743400","SEMIMAJOR_AXIS":"6925.383","APOAPSIS":"548.271","OBJECT_NAME":"STARLINK-2746","BSTAR":"0.00006014300000","INCLINATION":"53.0566","REV_AT_EPOCH":"3737","RCS_SIZE":"LARGE","REF_FRAME":"TEME","OBJECT_ID":"2021-044AQ","TIME_SYSTEM":"UTC","OBJECT_TYPE":"PAYLOAD","MEAN_ANOMALY":"303.0209","NORAD_CAT_ID":"48676","CENTER_NAME":"EARTH","TLE_LINE2":"2 48676  53.0566  16.9356 0001477  57.0922 303.0209 15.06388741 37372","LAUNCH_DATE":"2021-05-26","ECCENTRICITY":"0.00014770","CLASSIFICATION_TYPE":"U","EPHEMERIS_TYPE":"0","FILE":"3284946","ELEMENT_SET_NO":"999","COUNTRY_CODE":"US","ARG_OF_PERICENTER":"57.0922","SITE":"AFETR","TLE_LINE1":"1 48676U 21044AQ  22027.11474388  .00000614  00000-0  60143-4 0  9990","PERIOD":"95.593"},{"BSTAR":"0.00008253400000","INCLINATION":"53.0570","RCS_SIZE":"LARGE","REV_AT_EPOCH":"3825","GP_ID":"194753785","OBJECT_NAME":"STARLINK-2719","APOAPSIS":"548.345","SEMIMAJOR_AXIS":"6925.360","EPOCH":"2022-01-27T09:02:04.312320","DECAY_DATE":null,"MEAN_MOTION_DDOT":"0.0000000000000","RA_OF_ASC_NODE":"15.7572","MEAN_MOTION_DOT":"0.00000948","PERIAPSIS":"546.106","MEAN_MOTION":"15.06396143","MEAN_ELEMENT_THEORY":"SGP4","ELEMENT_SET_NO":"999","SITE":"AFETR","ARG_OF_PERICENTER":"71.2814","COUNTRY_CODE":"US","TLE_LINE1":"1 48677U 21044AR  22027.37643880  .00000948  00000-0  82534-4 0  9992","PERIOD":"95.592","FILE":"3285294","EPHEMERIS_TYPE":"0","CENTER_NAME":"EARTH","TLE_LINE2":"2 48677  53.0570  15.7572 0001616  71.2814 288.8350 15.06396143 38258","ECCENTRICITY":"0.00016160","LAUNCH_DATE":"2021-05-26","CLASSIFICATION_TYPE":"U","REF_FRAME":"TEME","TIME_SYSTEM":"UTC","OBJECT_ID":"2021-044AR","OBJECT_TYPE":"PAYLOAD","NORAD_CAT_ID":"48677","MEAN_ANOMALY":"288.8350"}];
